[
 {
   "JobID": 1,
   "Duration": 120,
   "Demand": 3,
   "Street": "335 Lakeview Ave",
   "City": "Excelsior",
   "ST": "MN",
   "ZIP": 55331,
   "latitude": 44.9135229,
   "longitude": -93.57696008
 },
 {
   "JobID": 2,
   "Duration": 120,
   "Demand": 4,
   "Street": "824 Lake Street East",
   "City": "Wayzata",
   "ST": "MN",
   "ZIP": 55391,
   "latitude": 44.96795991,
   "longitude": -93.50757154
 },
 {
   "JobID": 3,
   "Duration": 120,
   "Demand": 2,
   "Street": "595 Locust Hills Dr,",
   "City": "Wayzata",
   "ST": "MN",
   "ZIP": 55391,
   "latitude": 44.9593,
   "longitude": -93.4956
 },
 {
   "JobID": 4,
   "Duration": 120,
   "Demand": 2,
   "Street": "2521 Cross Point Road",
   "City": "Wayzata",
   "ST": "MN",
   "ZIP": 55391,
   "latitude": 44.93635,
   "longitude": -93.58208
 },
 {
   "JobID": 5,
   "Duration": 600,
   "Demand": 6,
   "Street": "18352 Minnetonka Boulevard",
   "City": "Wayzata",
   "ST": "MN",
   "ZIP": 55391,
   "latitude": 44.93937,
   "longitude": -93.51298
 },
 {
   "JobID": 6,
   "Duration": 600,
   "Demand": 4,
   "Street": "20 Orono Orchard Road",
   "City": "Orono",
   "ST": "MN",
   "ZIP": 55391,
   "latitude": 44.97887,
   "longitude": -93.5602
 },
 {
   "JobID": 7,
   "Duration": 600,
   "Demand": 6,
   "Street": "339 Second Street",
   "City": "Excelsior",
   "ST": "MN",
   "ZIP": 55331,
   "latitude": 44.90418,
   "longitude": -93.56694
 },
 {
   "JobID": 8,
   "Duration": 120,
   "Demand": 4,
   "Street": "1600 Bohns Point Road",
   "City": "Wayzata",
   "ST": "MN",
   "ZIP": 55391,
   "latitude": 44.94881,
   "longitude": -93.60375
 },
 {
   "JobID": 9,
   "Duration": 1200,
   "Demand": 10,
   "Street": "700 E Lake Street",
   "City": "Wayzata",
   "ST": "MN",
   "ZIP": 55391,
   "latitude": 44.96891,
   "longitude": -93.5112
 },
 {
   "JobID": 10,
   "Duration": 120,
   "Demand": 4,
   "Street": "20605 Carson Road",
   "City": "Excelsior",
   "ST": "MN",
   "ZIP": 55331,
   "latitude": 44.92386,
   "longitude": -93.54412
 },
 {
   "JobID": 11,
   "Duration": 120,
   "Demand": 4,
   "Street": "21930 Minnetonka Blvd.",
   "City": "Excelsior",
   "ST": "MN",
   "ZIP": 55331,
   "latitude": 44.90702,
   "longitude": -93.55892
 },
 {
   "JobID": 12,
   "Duration": 120,
   "Demand": 2,
   "Street": "228 Schlavin Court",
   "City": "Lino Lakes",
   "ST": "MN",
   "ZIP": 55014,
   "latitude": 45.12994,
   "longitude": -93.13283
 },
 {
   "JobID": 13,
   "Duration": 120,
   "Demand": 4,
   "Street": "350 Idaho Avenue N.",
   "City": "Golden Valley",
   "ST": "MN",
   "ZIP": 55427,
   "latitude": 44.98182,
   "longitude": -93.36541
 },
 {
   "JobID": 14,
   "Duration": 120,
   "Demand": 2,
   "Street": "130 Spur Circle",
   "City": "Wayzata",
   "ST": "MN",
   "ZIP": 55391,
   "latitude": 45.0098,
   "longitude": -93.52345
 },
 {
   "JobID": 15,
   "Duration": 600,
   "Demand": 6,
   "Street": "15250 Wayzata Blvd",
   "City": "Wayzata",
   "ST": "MN",
   "ZIP": 55391,
   "latitude": 44.97204,
   "longitude": -93.47276
 },
 {
   "JobID": 16,
   "Duration": 600,
   "Demand": 6,
   "Street": "2431 Lorien Street",
   "City": "Minnetonka",
   "ST": "MN",
   "ZIP": 55305,
   "latitude": 44.95675,
   "longitude": -93.43441
 },
 {
   "JobID": 17,
   "Duration": 600,
   "Demand": 8,
   "Street": "3511 Lake Elmo Avenue N",
   "City": "Lake Elmo",
   "ST": "MN",
   "ZIP": 55042,
   "latitude": 44.99981,
   "longitude": -92.87981
 },
 {
   "JobID": 18,
   "Duration": 600,
   "Demand": 5,
   "Street": "4906 Dempsey Ave NW",
   "City": "Buffalo",
   "ST": "MN",
   "ZIP": 55313,
   "latitude": 45.22085,
   "longitude": -93.94731
 },
 {
   "JobID": 19,
   "Duration": 120,
   "Demand": 2,
   "Street": "2209 Meeting Street",
   "City": "Wayzata",
   "ST": "MN",
   "ZIP": 55391,
   "latitude": 44.96119,
   "longitude": -93.46231
 },
 {
   "JobID": 20,
   "Duration": 120,
   "Demand": 4,
   "Street": "11 Apple Orchard Court",
   "City": "Dellwood",
   "ST": "MN",
   "ZIP": 55110,
   "latitude": 45.10913,
   "longitude": -92.95803
 },
 {
   "JobID": 21,
   "Duration": 120,
   "Demand": 2,
   "Street": "3112 Donnelly Drive NW",
   "City": "Maple Lake",
   "ST": "MN",
   "ZIP": 55358,
   "latitude": 45.23378,
   "longitude": -93.95283
 },
 {
   "JobID": 22,
   "Duration": 600,
   "Demand": 6,
   "Street": "6640 Crofoot Ave NW",
   "City": "Maple Lake",
   "ST": "MN",
   "ZIP": 55358,
   "latitude": 45.2467365,
   "longitude": -93.9419409
 },
 {
   "JobID": 23,
   "Duration": 120,
   "Demand": 2,
   "Street": "15001 Linner Ridge",
   "City": "Wayzata",
   "ST": "MN",
   "ZIP": 55391,
   "latitude": 44.96457,
   "longitude": -93.46968
 },
 {
   "JobID": 24,
   "Duration": 600,
   "Demand": 6,
   "Street": "11140 Hwy 55 A",
   "City": "Plymouth",
   "ST": "MN",
   "ZIP": 55441,
   "latitude": 44.98856,
   "longitude": -93.42091
 },
 {
   "JobID": 25,
   "Duration": 120,
   "Demand": 4,
   "Street": "6 Apple Orchard Ct.",
   "City": "White Bear Lake",
   "ST": "MN",
   "ZIP": 55110,
   "latitude": 45.10629,
   "longitude": -92.95868
 },
 {
   "JobID": 26,
   "Duration": 120,
   "Demand": 4,
   "Street": "512 Janalyn Circle",
   "City": "Golden Valley",
   "ST": "MN",
   "ZIP": 55416,
   "latitude": 44.97402,
   "longitude": -93.33421
 },
 {
   "JobID": 27,
   "Duration": 120,
   "Demand": 4,
   "Street": "402 River Street",
   "City": "Minneapolis",
   "ST": "MN",
   "ZIP": 55401,
   "latitude": 44.9886,
   "longitude": -93.26995
 },
 {
   "JobID": 28,
   "Duration": 600,
   "Demand": 6,
   "Street": "7513 Washington AveS",
   "City": "Edina",
   "ST": "MN",
   "ZIP": 55439,
   "latitude": 44.86638555,
   "longitude": -93.39805603
 },
 {
   "JobID": 29,
   "Duration": 120,
   "Demand": 4,
   "Street": "125 Lake St. W.",
   "City": "Wayzata",
   "ST": "MN",
   "ZIP": 55391,
   "latitude": 44.9707,
   "longitude": -93.52454
 },
 {
   "JobID": 30,
   "Duration": 600,
   "Demand": 6,
   "Street": "15 Division Street E",
   "City": "Buffalo",
   "ST": "MN",
   "ZIP": 55313,
   "latitude": 45.17229,
   "longitude": -93.87533
 },
 {
   "JobID": 31,
   "Duration": 120,
   "Demand": 4,
   "Street": "11313 Trillium Lane North",
   "City": "Champlin",
   "ST": "MN",
   "ZIP": 55316,
   "latitude": 45.15889,
   "longitude": -93.40279
 },
 {
   "JobID": 32,
   "Duration": 120,
   "Demand": 3,
   "Street": "8644 Great Waters Alcove",
   "City": "Eden Prairie",
   "ST": "MN",
   "ZIP": 55347,
   "latitude": 44.84724,
   "longitude": -93.51246
 },
 {
   "JobID": 33,
   "Duration": 120,
   "Demand": 4,
   "Street": "10135 47th Ave N",
   "City": "Plymouth",
   "ST": "MN",
   "ZIP": 55442,
   "latitude": 45.03919,
   "longitude": -93.40927
 },
 {
   "JobID": 34,
   "Duration": 120,
   "Demand": 4,
   "Street": "2 Merilane Ave",
   "City": "Edina",
   "ST": "MN",
   "ZIP": 55436,
   "latitude": 44.9167783,
   "longitude": -93.3687824
 },
 {
   "JobID": 35,
   "Duration": 120,
   "Demand": 4,
   "Street": "3241 Flag Ave S",
   "City": "St. Louis Park",
   "ST": "MN",
   "ZIP": 55426,
   "latitude": 44.94402,
   "longitude": -93.39617
 },
 {
   "JobID": 36,
   "Duration": 120,
   "Demand": 3,
   "Street": "4601 Browndale Ave.",
   "City": "Edina",
   "ST": "MN",
   "ZIP": 55424,
   "latitude": 44.91623,
   "longitude": -93.34341
 },
 {
   "JobID": 37,
   "Duration": 120,
   "Demand": 4,
   "Street": "6306 McIntyre Pointe",
   "City": "Edina",
   "ST": "MN",
   "ZIP": 55439,
   "latitude": 44.88855,
   "longitude": -93.39439
 },
 {
   "JobID": 38,
   "Duration": 120,
   "Demand": 4,
   "Street": "6908 Gleason Road",
   "City": "Edina",
   "ST": "MN",
   "ZIP": 55439,
   "latitude": 44.87719,
   "longitude": -93.38364
 },
 {
   "JobID": 39,
   "Duration": 1200,
   "Demand": 12,
   "Street": "4906 Lincoln Drive",
   "City": "Edina",
   "ST": "MN",
   "ZIP": 55436,
   "latitude": 44.91484,
   "longitude": -93.40008
 },
 {
   "JobID": 40,
   "Duration": 600,
   "Demand": 6,
   "Street": "5500 Lincoln Drive",
   "City": "Edina",
   "ST": "MN",
   "ZIP": 55436,
   "latitude": 44.90294,
   "longitude": -93.39974
 },
 {
   "JobID": 41,
   "Duration": 120,
   "Demand": 4,
   "Street": "4704 Merilane Avenue",
   "City": "Edina",
   "ST": "MN",
   "ZIP": 55436,
   "latitude": 44.91833,
   "longitude": -93.37068
 },
 {
   "JobID": 42,
   "Duration": 120,
   "Demand": 4,
   "Street": "6109 Oaklawn Avenue",
   "City": "Edina",
   "ST": "MN",
   "ZIP": 55424,
   "latitude": 44.89229,
   "longitude": -93.33618
 },
 {
   "JobID": 43,
   "Duration": 120,
   "Demand": 2,
   "Street": "7217 Fleetwood Drive",
   "City": "Edina",
   "ST": "MN",
   "ZIP": 55439,
   "latitude": 44.87161,
   "longitude": -93.37067
 },
 {
   "JobID": 44,
   "Duration": 600,
   "Demand": 6,
   "Street": "5905 Fairfax Ave.",
   "City": "Edina",
   "ST": "MN",
   "ZIP": 55424,
   "latitude": 44.89598,
   "longitude": -93.34005
 },
 {
   "JobID": 45,
   "Duration": 120,
   "Demand": 2,
   "Street": "7105 Antrim Court",
   "City": "Edina",
   "ST": "MN",
   "ZIP": 55439,
   "latitude": 44.87422,
   "longitude": -93.37333
 },
 {
   "JobID": 46,
   "Duration": 600,
   "Demand": 5,
   "Street": "5509 Kellogg Avenue",
   "City": "Edina",
   "ST": "MN",
   "ZIP": 55424,
   "latitude": 44.903,
   "longitude": -93.33753
 },
 {
   "JobID": 47,
   "Duration": 120,
   "Demand": 4,
   "Street": "9600 Upton Road",
   "City": "Bloomington",
   "ST": "MN",
   "ZIP": 55431,
   "latitude": 44.83081,
   "longitude": -93.31409
 },
 {
   "JobID": 48,
   "Duration": 120,
   "Demand": 2,
   "Street": "2460 Morson Circle",
   "City": "Mendota Heights",
   "ST": "MN",
   "ZIP": 55120,
   "latitude": 44.86685,
   "longitude": -93.1108
 },
 {
   "JobID": 49,
   "Duration": 120,
   "Demand": 4,
   "Street": "357 Salem Church Road",
   "City": "Sun Fish Lake",
   "ST": "MN",
   "ZIP": 55118,
   "latitude": 44.87328,
   "longitude": -93.10015
 }
]